     2.11           N: GPS NAV DATA                         RINEX VERSION / TYPE
sbf2rin-15.10.3                         07-DEC-24 04:06     PGM / RUN BY / DATE 
gfzrnx-1.13-7761    FILE PROCESSING     20241208 234015 UTC COMMENT             
    18                  GPS                                 LEAP SECONDS        
    6.519258022308E-09 1.509903313490E-14   147456     2344 DELTA-UTC: A0,A1,T,W
    2.7940E-08  7.4506E-09 -1.1921E-07  1.1921E-07          ION ALPHA           
    1.4950E+05 -1.9661E+05  0.0000E+00  2.6214E+05          ION BETA            
                                                            COMMENT             
   ------------------------------------------------------   COMMENT             
      # of NAV. EPOCHS based on # of FILE CONTRIBUTIONS     COMMENT             
   ------------------------------------------------------   COMMENT             
                                                            COMMENT             
BRD_HD  PRN T    =1   <5  <10  <15  <25  <50 >=50    #EPO   COMMENT             
BRD_LN  -------------------------------------------------   COMMENT             
BRD_STK G02 _     3    3    1    4    6    8    .      25   COMMENT             
BRD_STK G03 _     .    4    3    4    5    7    .      23   COMMENT             
BRD_STK G04 _     1    3    4    2    8    5    .      23   COMMENT             
BRD_STK G05 _     1    5    1    3    4    7    .      21   COMMENT             
BRD_STK G06 _     .    2    4    1    4    8    .      19   COMMENT             
BRD_STK G07 _     1    4    6    2    7    4    .      24   COMMENT             
BRD_STK G08 _     2    3    5    .    6    7    .      23   COMMENT             
BRD_STK G09 _     1    1    3    2    7    5    .      19   COMMENT             
BRD_STK G10 _     1    5    1    1    9    5    .      22   COMMENT             
BRD_STK G11 _     2    2    3    5    4    7    .      23   COMMENT             
BRD_STK G12 _     1    4    2    3    7    3    .      20   COMMENT             
BRD_STK G13 _     1    3    2    2    7    5    .      20   COMMENT             
BRD_STK G14 _     2    5    2    9    5    1    .      24   COMMENT             
BRD_STK G15 _     1    3    6    1    4    5    .      20   COMMENT             
BRD_STK G16 _     1    1    4    5    3    9    .      23   COMMENT             
BRD_STK G17 _     4    2    4    4    5    4    .      23   COMMENT             
BRD_STK G18 _     .    3    4    2    5    5    .      19   COMMENT             
BRD_STK G19 _     1    1    5    2    5    5    .      19   COMMENT             
BRD_STK G20 _     2    3    1    4    7    8    .      25   COMMENT             
BRD_STK G21 _     1    6    3    1    7    6    .      24   COMMENT             
BRD_STK G22 _     4    2    5    4    5    2    .      22   COMMENT             
BRD_STK G23 _     .    4    3    1    4    7    .      19   COMMENT             
BRD_STK G24 _     2    2    3    2    7    4    .      20   COMMENT             
BRD_STK G25 _     1    1    3    4    6    4    .      19   COMMENT             
BRD_STK G26 _     2    5    4    2    4    8    .      25   COMMENT             
BRD_STK G27 _     3    3    3    3    5    7    .      24   COMMENT             
BRD_STK G28 _     1    1    1    1    6    9    .      19   COMMENT             
BRD_STK G29 _     1    5    3    1    7    5    .      22   COMMENT             
BRD_STK G30 _     .    7    5    5    5    2    .      24   COMMENT             
BRD_STK G31 _     .    1    5    3    5    7    .      21   COMMENT             
BRD_STK G32 _     2    1    3    3    8    5    .      22   COMMENT             
BRD_LN  -------------------------------------------------   COMMENT             
BRD_SYS G   -                                         676   COMMENT             
                                                            COMMENT             
BRD_LN  -------------------------------------------------   COMMENT             
BRD_ALL                                               676   COMMENT             
                                                            COMMENT             
                                                            END OF HEADER
04 24 12 07 16 00  0.0 4.920200444758e-04 6.252776074689e-12 0.000000000000e+00
    1.750000000000e+02-8.268750000000e+01 4.416612541069e-09-2.458161899144e+00
   -4.360452294350e-06 3.201457438990e-03 8.251518011093e-06 5.153689126968e+03
    5.760000000000e+05-5.587935447693e-08 7.660289656440e-01-6.146728992462e-08
    9.664079095342e-01 2.283437500000e+02-2.989880785382e+00-7.983903990219e-09
    5.321650239522e-11 1.000000000000e+00 2.343000000000e+03 0.000000000000e+00
    2.000000000000e+00 0.000000000000e+00-4.656612873077e-09 4.310000000000e+02
    5.694060000000e+05 4.000000000000e+00 0.000000000000e+00 0.000000000000e+00
04 24 12 07 18 00  0.0 4.920647479594e-04 6.252776074689e-12 0.000000000000e+00
    1.760000000000e+02-8.928125000000e+01 4.388397080067e-09-1.408540769114e+00
   -4.859641194344e-06 3.202206338756e-03 7.282942533493e-06 5.153685518265e+03
    5.832000000000e+05 5.587935447693e-09 7.659713339863e-01-9.685754776001e-08
    9.664083601130e-01 2.403437500000e+02-2.989330046464e+00-8.004976296537e-09
    5.643092200298e-11 1.000000000000e+00 2.343000000000e+03 0.000000000000e+00
    2.000000000000e+00 0.000000000000e+00-4.656612873077e-09 4.320000000000e+02
    5.760180000000e+05 4.000000000000e+00 0.000000000000e+00 0.000000000000e+00
04 24 12 07 20 00  0.0 4.921094514430e-04 6.252776074689e-12 0.000000000000e+00
    1.770000000000e+02-9.365625000000e+01 4.375539401636e-09-3.582239995932e-01
   -4.803761839867e-06 3.202585037798e-03 7.266178727150e-06 5.153686637878e+03
    5.904000000000e+05 1.154839992523e-07 7.659138968967e-01 3.725290298462e-08
    9.664079519588e-01 2.408125000000e+02-2.989474859262e+00-8.130695818974e-09
   -3.964450849577e-11 1.000000000000e+00 2.343000000000e+03 0.000000000000e+00
    2.000000000000e+00 0.000000000000e+00-4.656612873077e-09 4.330000000000e+02
    5.832180000000e+05 4.000000000000e+00 0.000000000000e+00 0.000000000000e+00
04 24 12 07 21 14 40.0 4.921369254589e-04 6.252776074689e-12 0.000000000000e+00
    1.780000000000e+02-9.534375000000e+01 4.389468553270e-09 2.952135080733e-01
   -4.893168807030e-06 3.201772691682e-03 7.621943950653e-06 5.153685121536e+03
    5.948800000000e+05 1.005828380585e-07 7.658774541444e-01 5.774199962616e-08
    9.664077530020e-01 2.348437500000e+02-2.989471686192e+00-8.136410342721e-09
   -4.393040130612e-11 1.000000000000e+00 2.343000000000e+03 0.000000000000e+00
    2.000000000000e+00 0.000000000000e+00-4.656612873077e-09 4.340000000000e+02
    5.877180000000e+05 4.000000000000e+00 0.000000000000e+00 0.000000000000e+00
04 24 12 07 22 00  0.0 4.921536892653e-04 6.252776074689e-12 0.000000000000e+00
    1.790000000000e+02-9.481250000000e+01 4.369467720155e-09 6.919347981817e-01
   -4.835426807404e-06 3.201834158972e-03 7.601454854012e-06 5.153685251236e+03
    5.976000000000e+05 7.078051567078e-08 7.658555747416e-01 1.285225152969e-07
    9.664077442245e-01 2.350000000000e+02-2.989461103443e+00-8.092479941415e-09
   -7.178870457341e-11 1.000000000000e+00 2.343000000000e+03 0.000000000000e+00
    2.000000000000e+00 0.000000000000e+00-4.656612873077e-09 4.350000000000e+02
    5.904180000000e+05 4.000000000000e+00 0.000000000000e+00 0.000000000000e+00
04 24 12 08 00 00  0.0 4.921988584101e-04 6.252776074689e-12 0.000000000000e+00
    1.800000000000e+02-8.784375000000e+01 4.332323315799e-09 1.741736275290e+00
   -4.449859261513e-06 3.202519495972e-03 8.076429367065e-06 5.153687795639e+03
    0.000000000000e+00-3.539025783539e-08 6.453826938883e-01 6.332993507385e-08
    9.664069235274e-01 2.274062500000e+02-2.989091324566e+00-8.056049852527e-09
   -1.589351917173e-10 1.000000000000e+00 2.344000000000e+03 0.000000000000e+00
    2.000000000000e+00 0.000000000000e+00-4.656612873077e-09 4.360000000000e+02
    0.999900000000e+09 4.000000000000e+00 0.000000000000e+00 0.000000000000e+00
04 24 12 08 02 00  0.0 4.922435618937e-04 6.252776074689e-12 0.000000000000e+00
    1.810000000000e+02-7.943750000000e+01 4.377325190307e-09 2.792214736757e+00
   -4.192814230919e-06 3.203085740097e-03 7.960945367813e-06 5.153685701370e+03
    7.200000000000e+03-6.332993507385e-08 6.453246131147e-01-3.725290298462e-09
    9.664060984416e-01 2.292812500000e+02-2.989397628890e+00-8.001761876929e-09
   -1.242908915002e-10 1.000000000000e+00 2.344000000000e+03 0.000000000000e+00
    2.000000000000e+00 0.000000000000e+00-4.656613000000e-09 4.370000000000e+02
    5.850000000000e+03 4.000000000000e+00 0.000000000000e+00 0.000000000000e+00
04 24 12 08 04 00  0.0 4.922882653773e-04 6.252776074689e-12 0.000000000000e+00
    1.820000000000e+02-7.628125000000e+01 4.357324357192e-09-2.440784935415e+00
   -4.041939973831e-06 3.201928338967e-03 7.525086402893e-06 5.153687852859e+03
    1.440000000000e+04-5.215406417847e-08 6.452668995335e-01-3.911554813385e-08
    9.664051680257e-01 2.372812500000e+02-2.989411607073e+00-8.019262605905e-09
   -1.121475285376e-10 1.000000000000e+00 2.344000000000e+03 0.000000000000e+00
    2.000000000000e+00 0.000000000000e+00-4.656613000000e-09 4.380000000000e+02
    1.296000000000e+04 4.000000000000e+00 0.000000000000e+00 0.000000000000e+00
04 24 12 08 06 00  0.0 4.923334345222e-04 6.252776074689e-12 0.000000000000e+00
    1.830000000000e+02-8.153125000000e+01 4.421255591613e-09-1.391170602102e+00
   -4.317611455917e-06 3.202579100616e-03 6.899237632751e-06 5.153684268951e+03
    2.160000000000e+04-2.235174179077e-08 6.452093541880e-01-1.266598701477e-07
    9.664042785715e-01 2.498437500000e+02-2.988853660358e+00-8.028191549260e-09
   -1.617924535908e-10 1.000000000000e+00 2.344000000000e+03 0.000000000000e+00
    2.000000000000e+00 0.000000000000e+00-4.656613000000e-09 4.390000000000e+02
    1.446000000000e+04 4.000000000000e+00 0.000000000000e+00 0.000000000000e+00
